{
  "type": "FeatureCollection",
  "features": [
    {
      "type": "Feature",
      "properties": {
        "norad_id": 35835,
        "name": "COSMOS 2251 DEB",
        "group": "cosmos-2251-debris",
        "lat": 59.49473565361332,
        "lon": -56.23606668855471,
        "alt_km": 736.3973405400193,
        "timestamp": "2025-12-08T23:34:04.368525+00:00",
        "meta_object_name": "COSMOS 2251 DEB",
        "meta_object_id": "1993-036ATH",
        "meta_epoch": "2025-12-08T02:26:31.163712",
        "meta_mean_motion": 13.82845446,
        "meta_eccentricity": 0.0289856,
        "meta_inclination": 74.0637,
        "meta_ra_of_asc_node": 276.2339,
        "meta_arg_of_pericenter": 58.9026,
        "meta_mean_anomaly": 304.0195,
        "meta_ephemeris_type": 0,
        "meta_classification_type": "U",
        "meta_norad_cat_id": 35835,
        "meta_element_set_no": 999,
        "meta_rev_at_epoch": 61635,
        "meta_bstar": 0.0020246404,
        "meta_mean_motion_dot": 3.026e-05,
        "meta_mean_motion_ddot": 0,
        "tle_line1": "1 35835U 93036ATH 25342.10174958  .00003026  00000+0  20246-2 0  9992",
        "tle_line2": "2 35835  74.0637 276.2339 0289856  58.9026 304.0195 13.82845446616351"
      },
      "geometry": {
        "type": "Point",
        "coordinates": [
          -56.23606668855471,
          59.49473565361332
        ]
      }
    },
    {
      "type": "Feature",
      "properties": {
        "norad_id": 35836,
        "name": "COSMOS 2251 DEB",
        "group": "cosmos-2251-debris",
        "lat": 8.346504973990225,
        "lon": -2.1748080172457405,
        "alt_km": 653.3816305376376,
        "timestamp": "2025-12-08T23:34:04.368535+00:00",
        "meta_object_name": "COSMOS 2251 DEB",
        "meta_object_id": "1993-036ATJ",
        "meta_epoch": "2025-12-08T12:59:43.272384",
        "meta_mean_motion": 14.70824445,
        "meta_eccentricity": 0.00246358,
        "meta_inclination": 74.0314,
        "meta_ra_of_asc_node": 181.088,
        "meta_arg_of_pericenter": 240.2112,
        "meta_mean_anomaly": 119.661,
        "meta_ephemeris_type": 0,
        "meta_classification_type": "U",
        "meta_norad_cat_id": 35836,
        "meta_element_set_no": 999,
        "meta_rev_at_epoch": 63458,
        "meta_bstar": 0.0022156293,
        "meta_mean_motion_dot": 0.00013599,
        "meta_mean_motion_ddot": 0,
        "tle_line1": "1 35836U 93036ATJ 25342.54147306  .00013599  00000+0  22156-2 0  9996",
        "tle_line2": "2 35836  74.0314 181.0880 0024635 240.2112 119.6610 14.70824445634583"
      },
      "geometry": {
        "type": "Point",
        "coordinates": [
          -2.1748080172457405,
          8.346504973990225
        ]
      }
    },
    {
      "type": "Feature",
      "properties": {
        "norad_id": 35837,
        "name": "COSMOS 2251 DEB",
        "group": "cosmos-2251-debris",
        "lat": 67.2857621565002,
        "lon": -10.391353808840632,
        "alt_km": 740.6777606874866,
        "timestamp": "2025-12-08T23:34:04.368546+00:00",
        "meta_object_name": "COSMOS 2251 DEB",
        "meta_object_id": "1993-036ATK",
        "meta_epoch": "2025-12-08T09:49:11.073216",
        "meta_mean_motion": 13.63427445,
        "meta_eccentricity": 0.04220574,
        "meta_inclination": 73.7213,
        "meta_ra_of_asc_node": 214.8301,
        "meta_arg_of_pericenter": 136.2999,
        "meta_mean_anomaly": 41.3632,
        "meta_ephemeris_type": 0,
        "meta_classification_type": "U",
        "meta_norad_cat_id": 35837,
        "meta_element_set_no": 999,
        "meta_rev_at_epoch": 57917,
        "meta_bstar": 0.0028682551,
        "meta_mean_motion_dot": 4.116e-05,
        "meta_mean_motion_ddot": 0,
        "tle_line1": "1 35837U 93036ATK 25342.40915594  .00004116  00000+0  28683-2 0  9990",
        "tle_line2": "2 35837  73.7213 214.8301 0422057 136.2999  41.3632 13.63427445579176"
      },
      "geometry": {
        "type": "Point",
        "coordinates": [
          -10.391353808840632,
          67.2857621565002
        ]
      }
    },
    {
      "type": "Feature",
      "properties": {
        "norad_id": 35839,
        "name": "COSMOS 2251 DEB",
        "group": "cosmos-2251-debris",
        "lat": 59.338400052210545,
        "lon": 123.17023899640132,
        "alt_km": 413.76235958947746,
        "timestamp": "2025-12-08T23:34:04.368556+00:00",
        "meta_object_name": "COSMOS 2251 DEB",
        "meta_object_id": "1993-036ATM",
        "meta_epoch": "2025-12-07T09:51:22.453920",
        "meta_mean_motion": 15.48129363,
        "meta_eccentricity": 0.00022318,
        "meta_inclination": 74.2099,
        "meta_ra_of_asc_node": 335.0837,
        "meta_arg_of_pericenter": 8.4811,
        "meta_mean_anomaly": 351.644,
        "meta_ephemeris_type": 0,
        "meta_classification_type": "U",
        "meta_norad_cat_id": 35839,
        "meta_element_set_no": 999,
        "meta_rev_at_epoch": 88485,
        "meta_bstar": 0.0063230945,
        "meta_mean_motion_dot": 0.0034734,
        "meta_mean_motion_ddot": 0,
        "tle_line1": "1 35839U 93036ATM 25341.41067655  .00347340  00000+0  63231-2 0  9995",
        "tle_line2": "2 35839  74.2099 335.0837 0002231   8.4811 351.6440 15.48129363884858"
      },
      "geometry": {
        "type": "Point",
        "coordinates": [
          123.17023899640132,
          59.338400052210545
        ]
      }
    },
    {
      "type": "Feature",
      "properties": {
        "norad_id": 35840,
        "name": "COSMOS 2251 DEB",
        "group": "cosmos-2251-debris",
        "lat": -13.803580527155708,
        "lon": 161.08270734589325,
        "alt_km": 758.784509111184,
        "timestamp": "2025-12-08T23:34:04.368567+00:00",
        "meta_object_name": "COSMOS 2251 DEB",
        "meta_object_id": "1993-036ATN",
        "meta_epoch": "2025-12-07T19:14:43.874880",
        "meta_mean_motion": 14.37753479,
        "meta_eccentricity": 0.01162734,
        "meta_inclination": 73.9301,
        "meta_ra_of_asc_node": 167.3302,
        "meta_arg_of_pericenter": 71.0213,
        "meta_mean_anomaly": 290.3497,
        "meta_ephemeris_type": 0,
        "meta_classification_type": "U",
        "meta_norad_cat_id": 35840,
        "meta_element_set_no": 999,
        "meta_rev_at_epoch": 85220,
        "meta_bstar": 0.0026020833,
        "meta_mean_motion_dot": 8.452e-05,
        "meta_mean_motion_ddot": 0,
        "tle_line1": "1 35840U 93036ATN 25341.80189670  .00008452  00000+0  26021-2 0  9996",
        "tle_line2": "2 35840  73.9301 167.3302 0116273  71.0213 290.3497 14.37753479852202"
      },
      "geometry": {
        "type": "Point",
        "coordinates": [
          161.08270734589325,
          -13.803580527155708
        ]
      }
    },
    {
      "type": "Feature",
      "properties": {
        "norad_id": 35883,
        "name": "COSMOS 2251 DEB",
        "group": "cosmos-2251-debris",
        "lat": 6.143111815586485,
        "lon": -104.67134282718874,
        "alt_km": 675.8146199116509,
        "timestamp": "2025-12-08T23:34:04.368577+00:00",
        "meta_object_name": "COSMOS 2251 DEB",
        "meta_object_id": "1993-036ATW",
        "meta_epoch": "2025-12-08T12:53:27.979296",
        "meta_mean_motion": 14.5058807,
        "meta_eccentricity": 0.00839123,
        "meta_inclination": 74.0248,
        "meta_ra_of_asc_node": 77.932,
        "meta_arg_of_pericenter": 208.211,
        "meta_mean_anomaly": 163.6192,
        "meta_ephemeris_type": 0,
        "meta_classification_type": "U",
        "meta_norad_cat_id": 35883,
        "meta_element_set_no": 999,
        "meta_rev_at_epoch": 62325,
        "meta_bstar": 0.00065719246,
        "meta_mean_motion_dot": 2.667e-05,
        "meta_mean_motion_ddot": 0,
        "tle_line1": "1 35883U 93036ATW 25342.53712939  .00002667  00000+0  65719-3 0  9994",
        "tle_line2": "2 35883  74.0248  77.9320 0083912 208.2110 163.6192 14.50588070623253"
      },
      "geometry": {
        "type": "Point",
        "coordinates": [
          -104.67134282718874,
          6.143111815586485
        ]
      }
    },
    {
      "type": "Feature",
      "properties": {
        "norad_id": 35884,
        "name": "COSMOS 2251 DEB",
        "group": "cosmos-2251-debris",
        "lat": -50.424041537088534,
        "lon": -176.8616602893363,
        "alt_km": 828.9239326875613,
        "timestamp": "2025-12-08T23:34:04.368587+00:00",
        "meta_object_name": "COSMOS 2251 DEB",
        "meta_object_id": "1993-036ATX",
        "meta_epoch": "2025-12-06T18:16:42.391200",
        "meta_mean_motion": 14.25605565,
        "meta_eccentricity": 0.01089766,
        "meta_inclination": 73.9907,
        "meta_ra_of_asc_node": 346.8314,
        "meta_arg_of_pericenter": 135.364,
        "meta_mean_anomaly": 225.6347,
        "meta_ephemeris_type": 0,
        "meta_classification_type": "U",
        "meta_norad_cat_id": 35884,
        "meta_element_set_no": 999,
        "meta_rev_at_epoch": 22272,
        "meta_bstar": 0.0019229553,
        "meta_mean_motion_dot": 4.824e-05,
        "meta_mean_motion_ddot": 0,
        "tle_line1": "1 35884U 93036ATX 25340.76160175  .00004824  00000+0  19230-2 0  9990",
        "tle_line2": "2 35884  73.9907 346.8314 0108976 135.3640 225.6347 14.25605565222720"
      },
      "geometry": {
        "type": "Point",
        "coordinates": [
          -176.8616602893363,
          -50.424041537088534
        ]
      }
    }
  ]
}